{
  "type": "FeatureCollection",
  "features": [
    {
      "type": "Feature",
      "properties": {
        "norad_id": 36744,
        "name": "COMS 1",
        "group": "weather",
        "lat": -0.7098228888207734,
        "lon": 68.33239225433766,
        "alt_km": 35789.54018181408,
        "timestamp": "2025-12-26T13:39:18.603219+00:00",
        "meta_object_name": "COMS 1",
        "meta_object_id": "2010-032A",
        "meta_epoch": "2025-12-25T12:42:15.782976",
        "meta_mean_motion": 1.00270082,
        "meta_eccentricity": 8.877e-05,
        "meta_inclination": 4.3689,
        "meta_ra_of_asc_node": 77.8525,
        "meta_arg_of_pericenter": 213.8569,
        "meta_mean_anomaly": 121.3153,
        "meta_ephemeris_type": 0,
        "meta_classification_type": "U",
        "meta_norad_cat_id": 36744,
        "meta_element_set_no": 999,
        "meta_rev_at_epoch": 4934,
        "meta_bstar": 0,
        "meta_mean_motion_dot": -3.24e-06,
        "meta_mean_motion_ddot": 0,
        "tle_line1": "1 36744U 10032A   25359.52934934 -.00000324  00000+0  00000+0 0  9991",
        "tle_line2": "2 36744   4.3689  77.8525 0000887 213.8569 121.3153  1.00270082 49343"
      },
      "geometry": {
        "type": "Point",
        "coordinates": [
          68.33239225433766,
          -0.7098228888207734
        ]
      }
    },
    {
      "type": "Feature",
      "properties": {
        "norad_id": 37214,
        "name": "FENGYUN 3B",
        "group": "weather",
        "lat": -50.2880945889861,
        "lon": -150.34458800204746,
        "alt_km": 848.9918810905665,
        "timestamp": "2025-12-26T13:39:18.603231+00:00",
        "meta_object_name": "FENGYUN 3B",
        "meta_object_id": "2010-059A",
        "meta_epoch": "2025-12-26T06:23:06.381312",
        "meta_mean_motion": 14.14794627,
        "meta_eccentricity": 0.00214606,
        "meta_inclination": 98.9886,
        "meta_ra_of_asc_node": 40.3365,
        "meta_arg_of_pericenter": 318.8305,
        "meta_mean_anomaly": 170.5016,
        "meta_ephemeris_type": 0,
        "meta_classification_type": "U",
        "meta_norad_cat_id": 37214,
        "meta_element_set_no": 999,
        "meta_rev_at_epoch": 78297,
        "meta_bstar": 0.00021833383,
        "meta_mean_motion_dot": 3.76e-06,
        "meta_mean_motion_ddot": 0,
        "tle_line1": "1 37214U 10059A   25360.26604608  .00000376  00000+0  21833-3 0  9995",
        "tle_line2": "2 37214  98.9886  40.3365 0021460 318.8305 170.5016 14.14794627782977"
      },
      "geometry": {
        "type": "Point",
        "coordinates": [
          -150.34458800204746,
          -50.2880945889861
        ]
      }
    },
    {
      "type": "Feature",
      "properties": {
        "norad_id": 37849,
        "name": "SUOMI NPP",
        "group": "weather",
        "lat": -52.435551726929184,
        "lon": -50.623130776220044,
        "alt_km": 835.3794741557795,
        "timestamp": "2025-12-26T13:39:18.603242+00:00",
        "meta_object_name": "SUOMI NPP",
        "meta_object_id": "2011-061A",
        "meta_epoch": "2025-12-22T15:10:21.732672",
        "meta_mean_motion": 14.19516903,
        "meta_eccentricity": 0.00024883,
        "meta_inclination": 98.7787,
        "meta_ra_of_asc_node": 293.8852,
        "meta_arg_of_pericenter": 103.0781,
        "meta_mean_anomaly": 257.0673,
        "meta_ephemeris_type": 0,
        "meta_classification_type": "U",
        "meta_norad_cat_id": 37849,
        "meta_element_set_no": 999,
        "meta_rev_at_epoch": 73339,
        "meta_bstar": 6.3406935e-05,
        "meta_mean_motion_dot": 8.9e-07,
        "meta_mean_motion_ddot": 0,
        "tle_line1": "1 37849U 11061A   25356.63219598  .00000089  00000+0  63407-4 0  9994",
        "tle_line2": "2 37849  98.7787 293.8852 0002488 103.0781 257.0673 14.19516903733392"
      },
      "geometry": {
        "type": "Point",
        "coordinates": [
          -50.623130776220044,
          -52.435551726929184
        ]
      }
    },
    {
      "type": "Feature",
      "properties": {
        "norad_id": 38552,
        "name": "METEOSAT-10 (MSG-3)",
        "group": "weather",
        "lat": -3.6557951683865157,
        "lon": -59.68211996313886,
        "alt_km": 35782.3961349554,
        "timestamp": "2025-12-26T13:39:18.603276+00:00",
        "meta_object_name": "METEOSAT-10 (MSG-3)",
        "meta_object_id": "2012-035B",
        "meta_epoch": "2025-12-25T19:55:02.807904",
        "meta_mean_motion": 1.00266624,
        "meta_eccentricity": 0.0001479,
        "meta_inclination": 4.2575,
        "meta_ra_of_asc_node": 61.6862,
        "meta_arg_of_pericenter": 265.3349,
        "meta_mean_anomaly": 66.5982,
        "meta_ephemeris_type": 0,
        "meta_classification_type": "U",
        "meta_norad_cat_id": 38552,
        "meta_element_set_no": 999,
        "meta_rev_at_epoch": 4911,
        "meta_bstar": 0,
        "meta_mean_motion_dot": 1.4e-07,
        "meta_mean_motion_ddot": 0,
        "tle_line1": "1 38552U 12035B   25359.82989361  .00000014  00000+0  00000+0 0  9997",
        "tle_line2": "2 38552   4.2575  61.6862 0001479 265.3349  66.5982  1.00266624 49118"
      },
      "geometry": {
        "type": "Point",
        "coordinates": [
          -59.68211996313886,
          -3.6557951683865157
        ]
      }
    },
    {
      "type": "Feature",
      "properties": {
        "norad_id": 38771,
        "name": "METOP-B",
        "group": "weather",
        "lat": -71.10385469452247,
        "lon": -156.2064486120061,
        "alt_km": 829.6007632157789,
        "timestamp": "2025-12-26T13:39:18.603288+00:00",
        "meta_object_name": "METOP-B",
        "meta_object_id": "2012-049A",
        "meta_epoch": "2025-12-26T05:42:37.873440",
        "meta_mean_motion": 14.21413386,
        "meta_eccentricity": 0.00032953,
        "meta_inclination": 98.678,
        "meta_ra_of_asc_node": 49.9667,
        "meta_arg_of_pericenter": 116.1865,
        "meta_mean_anomaly": 243.9652,
        "meta_ephemeris_type": 0,
        "meta_classification_type": "U",
        "meta_norad_cat_id": 38771,
        "meta_element_set_no": 999,
        "meta_rev_at_epoch": 68869,
        "meta_bstar": 8.1607714e-05,
        "meta_mean_motion_dot": 1.35e-06,
        "meta_mean_motion_ddot": 0,
        "tle_line1": "1 38771U 12049A   25360.23793835  .00000135  00000+0  81608-4 0  9993",
        "tle_line2": "2 38771  98.6780  49.9667 0003295 116.1865 243.9652 14.21413386688695"
      },
      "geometry": {
        "type": "Point",
        "coordinates": [
          -156.2064486120061,
          -71.10385469452247
        ]
      }
    },
    {
      "type": "Feature",
      "properties": {
        "norad_id": 39216,
        "name": "INSAT-3D",
        "group": "weather",
        "lat": -0.3707645561571432,
        "lon": 69.68802891900216,
        "alt_km": 35793.83675526813,
        "timestamp": "2025-12-26T13:39:18.603301+00:00",
        "meta_object_name": "INSAT-3D",
        "meta_object_id": "2013-038B",
        "meta_epoch": "2025-12-26T00:52:38.586144",
        "meta_mean_motion": 1.00273672,
        "meta_eccentricity": 0.0001945,
        "meta_inclination": 1.4773,
        "meta_ra_of_asc_node": 84.8465,
        "meta_arg_of_pericenter": 157.8171,
        "meta_mean_anomaly": 354.8337,
        "meta_ephemeris_type": 0,
        "meta_classification_type": "U",
        "meta_norad_cat_id": 39216,
        "meta_element_set_no": 999,
        "meta_rev_at_epoch": 4534,
        "meta_bstar": 0,
        "meta_mean_motion_dot": -3.17e-06,
        "meta_mean_motion_ddot": 0,
        "tle_line1": "1 39216U 13038B   25360.03655771 -.00000317  00000+0  00000+0 0  9996",
        "tle_line2": "2 39216   1.4773  84.8465 0001945 157.8171 354.8337  1.00273672 45346"
      },
      "geometry": {
        "type": "Point",
        "coordinates": [
          69.68802891900216,
          -0.3707645561571432
        ]
      }
    },
    {
      "type": "Feature",
      "properties": {
        "norad_id": 39260,
        "name": "FENGYUN 3C",
        "group": "weather",
        "lat": -35.63003862027056,
        "lon": 151.43738717906834,
        "alt_km": 840.6884363143799,
        "timestamp": "2025-12-26T13:39:18.603312+00:00",
        "meta_object_name": "FENGYUN 3C",
        "meta_object_id": "2013-052A",
        "meta_epoch": "2025-12-26T05:51:14.906592",
        "meta_mean_motion": 14.1570031,
        "meta_eccentricity": 0.00150404,
        "meta_inclination": 98.478,
        "meta_ra_of_asc_node": 337.2649,
        "meta_arg_of_pericenter": 157.1797,
        "meta_mean_anomaly": 203.0049,
        "meta_ephemeris_type": 0,
        "meta_classification_type": "U",
        "meta_norad_cat_id": 39260,
        "meta_element_set_no": 999,
        "meta_rev_at_epoch": 63409,
        "meta_bstar": 7.2320843e-05,
        "meta_mean_motion_dot": 1.01e-06,
        "meta_mean_motion_ddot": 0,
        "tle_line1": "1 39260U 13052A   25360.24392253  .00000101  00000+0  72321-4 0  9997",
        "tle_line2": "2 39260  98.4780 337.2649 0015040 157.1797 203.0049 14.15700310634091"
      },
      "geometry": {
        "type": "Point",
        "coordinates": [
          151.43738717906834,
          -35.63003862027056
        ]
      }
    }
  ]
}